{"type": "FeatureCollection", "features": [ {"type": "Feature", "properties": {"norad_id": 35194, "name": "FENGYUN 1C DEB", "group": "fengyun-1c-debris", "lat": 81.02696712625715, "lon": -28.46775914378235, "alt_km": 603.6910373128758, "timestamp": "2025-12-08T03:50:07.284622+00:00", "meta": {"OBJECT_NAME": "FENGYUN 1C DEB", "OBJECT_ID": "1999-025DPA", "EPOCH": "2025-12-03T11:35:48.411744", "MEAN_MOTION": 14.6015503, "ECCENTRICITY": 0.01150514, "INCLINATION": 98.9499, "RA_OF_ASC_NODE": 60.0738, "ARG_OF_PERICENTER": 104.0721, "MEAN_ANOMALY": 257.3297, "EPHEMERIS_TYPE": 0, "CLASSIFICATION_TYPE": "U", "NORAD_CAT_ID": 35194, "ELEMENT_SET_NO": 999, "REV_AT_EPOCH": 65255, "BSTAR": 0.0013414517, "MEAN_MOTION_DOT": 7.036e-05, "MEAN_MOTION_DDOT": 0}, "tle": {"line1": "1 35194U 99025DPA 25337.48319921  .00007036  00000+0  13415-2 0  9995", "line2": "2 35194  98.9499  60.0738 0115051 104.0721 257.3297 14.60155030652557"}}, "geometry": {"type": "Point", "coordinates": [-28.46775914378235, 81.02696712625715]}}, {"type": "Feature", "properties": {"norad_id": 35195, "name": "FENGYUN 1C DEB", "group": "fengyun-1c-debris", "lat": 10.320569402587804, "lon": -102.21087671024155, "alt_km": 703.4233496250372, "timestamp": "2025-12-08T03:50:07.284632+00:00", "meta": {"OBJECT_NAME": "FENGYUN 1C DEB", "OBJECT_ID": "1999-025DPB", "EPOCH": "2025-12-03T12:33:41.840352", "MEAN_MOTION": 14.55899933, "ECCENTRICITY": 0.01040396, "INCLINATION": 98.9842, "RA_OF_ASC_NODE": 71.1499, "ARG_OF_PERICENTER": 96.2611, "MEAN_ANOMALY": 265.0447, "EPHEMERIS_TYPE": 0, "CLASSIFICATION_TYPE": "U", "NORAD_CAT_ID": 35195, "ELEMENT_SET_NO": 999, "REV_AT_EPOCH": 90792, "BSTAR": 0.0012811423, "MEAN_MOTION_DOT": 6e-05, "MEAN_MOTION_DDOT": 0}, "tle": {"line1": "1 35195U 99025DPB 25337.52340093  .00006000  00000+0  12811-2 0  9994", "line2": "2 35195  98.9842  71.1499 0104039  96.2611 265.0447 14.55899933907929"}}, "geometry": {"type": "Point", "coordinates": [-102.21087671024155, 10.320569402587804]}}, {"type": "Feature", "properties": {"norad_id": 35196, "name": "FENGYUN 1C DEB", "group": "fengyun-1c-debris", "lat": 9.678202128782198, "lon": 178.95728333712276, "alt_km": 982.4548936433494, "timestamp": "2025-12-08T03:50:07.284642+00:00", "meta": {"OBJECT_NAME": "FENGYUN 1C DEB", "OBJECT_ID": "1999-025DPC", "EPOCH": "2025-12-07T00:06:32.827968", "MEAN_MOTION": 14.19746782, "ECCENTRICITY": 0.02147872, "INCLINATION": 98.536, "RA_OF_ASC_NODE": 356.3747, "ARG_OF_PERICENTER": 354.9961, "MEAN_ANOMALY": 33.7276, "EPHEMERIS_TYPE": 0, "CLASSIFICATION_TYPE": "U", "NORAD_CAT_ID": 35196, "ELEMENT_SET_NO": 999, "REV_AT_EPOCH": 89053, "BSTAR": 0.001468682, "MEAN_MOTION_DOT": 3.873e-05, "MEAN_MOTION_DDOT": 0}, "tle": {"line1": "1 35196U 99025DPC 25341.00454662  .00003873  00000+0  14687-2 0  9999", "line2": "2 35196  98.5360 356.3747 0214787 354.9961  33.7276 14.19746782890530"}}, "geometry": {"type": "Point", "coordinates": [178.95728333712276, 9.678202128782198]}}, {"type": "Feature", "properties": {"norad_id": 35200, "name": "FENGYUN 1C DEB", "group": "fengyun-1c-debris", "lat": 76.23708126234162, "lon": 179.72352781403916, "alt_km": 860.9815095213789, "timestamp": "2025-12-08T03:50:07.284652+00:00", "meta": {"OBJECT_NAME": "FENGYUN 1C DEB", "OBJECT_ID": "1999-025DPG", "EPOCH": "2025-12-05T17:08:36.752928", "MEAN_MOTION": 13.41952848, "ECCENTRICITY": 0.03532987, "INCLINATION": 98.8697, "RA_OF_ASC_NODE": 317.9651, "ARG_OF_PERICENTER": 77.9252, "MEAN_ANOMALY": 92.6148, "EPHEMERIS_TYPE": 0, "CLASSIFICATION_TYPE": "U", "NORAD_CAT_ID": 35200, "ELEMENT_SET_NO": 999, "REV_AT_EPOCH": 65809, "BSTAR": 0.00063085378, "MEAN_MOTION_DOT": 4.78e-06, "MEAN_MOTION_DDOT": 0}, "tle": {"line1": "1 35200U 99025DPG 25339.71431427  .00000478  00000+0  63085-3 0  9999", "line2": "2 35200  98.8697 317.9651 0353298  77.9252  92.6148 13.41952848658096"}}, "geometry": {"type": "Point", "coordinates": [179.72352781403916, 76.23708126234162]}}, {"type": "Feature", "properties": {"norad_id": 35201, "name": "FENGYUN 1C DEB", "group": "fengyun-1c-debris", "lat": -27.80965466996794, "lon": -4.027765908594947, "alt_km": 859.8384143565136, "timestamp": "2025-12-08T03:50:07.284662+00:00", "meta": {"OBJECT_NAME": "FENGYUN 1C DEB", "OBJECT_ID": "1999-025DPH", "EPOCH": "2025-12-06T07:48:17.642016", "MEAN_MOTION": 14.11048703, "ECCENTRICITY": 0.00057709, "INCLINATION": 98.7079, "RA_OF_ASC_NODE": 349.557, "ARG_OF_PERICENTER": 270.7578, "MEAN_ANOMALY": 106.9618, "EPHEMERIS_TYPE": 0, "CLASSIFICATION_TYPE": "U", "NORAD_CAT_ID": 35201, "ELEMENT_SET_NO": 999, "REV_AT_EPOCH": 86929, "BSTAR": 0.00021062979, "MEAN_MOTION_DOT": 3.36e-06, "MEAN_MOTION_DDOT": 0}, "tle": {"line1": "1 35201U 99025DPH 25340.32520419  .00000336  00000+0  21063-3 0  9992", "line2": "2 35201  98.7079 349.5570 0005770 270.7578 106.9618 14.11048703869295"}}, "geometry": {"type": "Point", "coordinates": [-4.027765908594947, -27.80965466996794]}}, {"type": "Feature", "properties": {"norad_id": 35202, "name": "FENGYUN 1C DEB", "group": "fengyun-1c-debris", "lat": 78.73986839611233, "lon": -89.32617345956912, "alt_km": 1043.0546014816891, "timestamp": "2025-12-08T03:50:07.284672+00:00", "meta": {"OBJECT_NAME": "FENGYUN 1C DEB", "OBJECT_ID": "1999-025DPJ", "EPOCH": "2025-12-07T02:12:12.627648", "MEAN_MOTION": 13.34737824, "ECCENTRICITY": 0.03742331, "INCLINATION": 100.0915, "RA_OF_ASC_NODE": 26.1822, "ARG_OF_PERICENTER": 21.7012, "MEAN_ANOMALY": 339.9513, "EPHEMERIS_TYPE": 0, "CLASSIFICATION_TYPE": "U", "NORAD_CAT_ID": 35202, "ELEMENT_SET_NO": 999, "REV_AT_EPOCH": 56901, "BSTAR": 0.00090072677, "MEAN_MOTION_DOT": 6.28e-06, "MEAN_MOTION_DDOT": 0}, "tle": {"line1": "1 35202U 99025DPJ 25341.09181282  .00000628  00000+0  90073-3 0  9990", "line2": "2 35202 100.0915  26.1822 0374233  21.7012 339.9513 13.34737824569012"}}, "geometry": {"type": "Point", "coordinates": [-89.32617345956912, 78.73986839611233]}}, {"type": "Feature", "properties": {"norad_id": 35203, "name": "FENGYUN 1C DEB", "group": "fengyun-1c-debris", "lat": -43.777730158665236, "lon": -39.778016489909824, "alt_km": 1478.8201569918856, "timestamp": "2025-12-08T03:50:07.284681+00:00", "meta": {"OBJECT_NAME": "FENGYUN 1C DEB", "OBJECT_ID": "1999-025DPK", "EPOCH": "2025-12-07T04:33:02.628864", "MEAN_MOTION": 13.26403425, "ECCENTRICITY": 0.05114724, "INCLINATION": 102.0739, "RA_OF_ASC_NODE": 307.2564, "ARG_OF_PERICENTER": 171.4627, "MEAN_ANOMALY": 189.5609, "EPHEMERIS_TYPE": 0, "CLASSIFICATION_TYPE": "U", "NORAD_CAT_ID": 35203, "ELEMENT_SET_NO": 999, "REV_AT_EPOCH": 59577, "BSTAR": 0.0024343196, "MEAN_MOTION_DOT": 2.135e-05, "MEAN_MOTION_DDOT": 0}, "tle": {"line1": "1 35203U 99025DPK 25341.18961376  .00002135  00000+0  24343-2 0  9992", "line2": "2 35203 102.0739 307.2564 0511472 171.4627 189.5609 13.26403425595773"}}, "geometry": {"type": "Point", "coordinates": [-39.778016489909824, -43.777730158665236]}}, {"type": "Feature", "properties": {"norad_id": 35204, "name": "FENGYUN 1C DEB", "group": "fengyun-1c-debris", "lat": -18.857979761828638, "lon": 173.49928206378823, "alt_km": 707.0423883721614, "timestamp": "2025-12-08T03:50:07.284711+00:00", "meta": {"OBJECT_NAME": "FENGYUN 1C DEB", "OBJECT_ID": "1999-025DPL", "EPOCH": "2025-12-07T00:26:13.057152", "MEAN_MOTION": 14.48638625, "ECCENTRICITY": 0.00394716, "INCLINATION": 99.0066, "RA_OF_ASC_NODE": 169.1771, "ARG_OF_PERICENTER": 340.6655, "MEAN_ANOMALY": 170.1147, "EPHEMERIS_TYPE": 0, "CLASSIFICATION_TYPE": "U", "NORAD_CAT_ID": 35204, "ELEMENT_SET_NO": 999, "REV_AT_EPOCH": 90847, "BSTAR": 0.0035003707, "MEAN_MOTION_DOT": 0.00013278, "MEAN_MOTION_DDOT": 0}, "tle": {"line1": "1 35204U 99025DPL 25341.01820668  .00013278  00000+0  35004-2 0  9999", "line2": "2 35204  99.0066 169.1771 0039471 340.6655 170.1147 14.48638625908477"}}, "geometry": {"type": "Point", "coordinates": [173.49928206378823, -18.857979761828638]}}, {"type": "Feature", "properties": {"norad_id": 35207, "name": "FENGYUN 1C DEB", "group": "fengyun-1c-debris", "lat": 34.939441972006954, "lon": -93.56336785973495, "alt_km": 727.999902962948, "timestamp": "2025-12-08T03:50:07.284722+00:00", "meta": {"OBJECT_NAME": "FENGYUN 1C DEB", "OBJECT_ID": "1999-025DPP", "EPOCH": "2025-12-07T05:43:01.437312", "MEAN_MOTION": 14.55295083, "ECCENTRICITY": 0.00548752, "INCLINATION": 98.6914, "RA_OF_ASC_NODE": 79.3434, "ARG_OF_PERICENTER": 272.0633, "MEAN_ANOMALY": 87.4279, "EPHEMERIS_TYPE": 0, "CLASSIFICATION_TYPE": "U", "NORAD_CAT_ID": 35207, "ELEMENT_SET_NO": 999, "REV_AT_EPOCH": 64824, "BSTAR": 0.0033651688, "MEAN_MOTION_DOT": 0.00014859, "MEAN_MOTION_DDOT": 0}, "tle": {"line1": "1 35207U 99025DPP 25341.23821108  .00014859  00000+0  33652-2 0  9999", "line2": "2 35207  98.6914  79.3434 0054875 272.0633  87.4279 14.55295083648241"}}, "geometry": {"type": "Point", "coordinates": [-93.56336785973495, 34.939441972006954]}}, {"type": "Feature", "properties": {"norad_id": 35208, "name": "FENGYUN 1C DEB", "group": "fengyun-1c-debris", "lat": -28.88004596586519, "lon": 6.445669761657521, "alt_km": 970.3567322236213, "timestamp": "2025-12-08T03:50:07.284732+00:00", "meta": {"OBJECT_NAME": "FENGYUN 1C DEB", "OBJECT_ID": "1999-025DPQ", "EPOCH": "2025-11-27T19:11:53.318688", "MEAN_MOTION": 13.99599013, "ECCENTRICITY": 0.01006373, "INCLINATION": 98.9056, "RA_OF_ASC_NODE": 351.4058, "ARG_OF_PERICENTER": 197.6504, "MEAN_ANOMALY": 162.1154, "EPHEMERIS_TYPE": 0, "CLASSIFICATION_TYPE": "U", "NORAD_CAT_ID": 35208, "ELEMENT_SET_NO": 999, "REV_AT_EPOCH": 90354, "BSTAR": 0.00091687477, "MEAN_MOTION_DOT": 1.356e-05, "MEAN_MOTION_DDOT": 0}, "tle": {"line1": "1 35208U 99025DPQ 25331.79992267  .00001356  00000+0  91687-3 0  9996", "line2": "2 35208  98.9056 351.4058 0100637 197.6504 162.1154 13.99599013903542"}}, "geometry": {"type": "Point", "coordinates": [6.445669761657521, -28.88004596586519]}}]}